start=new Date('2022-07-25T00:00:00.000Z').valueOf();
sats=[{"DECAY_DATE":null,"ARG_OF_PERICENTER":"81.0383","RCS_SIZE":"LARGE","REF_FRAME":"TEME","MEAN_MOTION_DOT":"-0.00000560","MEAN_ANOMALY":"279.0758","OBJECT_ID":"2021-017BG","ELEMENT_SET_NO":"999","CLASSIFICATION_TYPE":"U","RA_OF_ASC_NODE":"34.6453","EPHEMERIS_TYPE":"0","NORAD_CAT_ID":"47776","ECCENTRICITY":"0.00013430","COUNTRY_CODE":"US","APOAPSIS":"548.163","OBJECT_NAME":"STARLINK-2209","MEAN_MOTION_DDOT":"0.0000000000000","FILE":"3521124","TIME_SYSTEM":"UTC","REV_AT_EPOCH":"7821","SITE":"AFETR","CENTER_NAME":"EARTH","OBJECT_TYPE":"PAYLOAD","MEAN_ELEMENT_THEORY":"SGP4","TLE_LINE1":"1 47776U 21017BG  22205.83304818 -.00000560  00000-0 -18708-4 0  9999","SEMIMAJOR_AXIS":"6925.368","GP_ID":"208798845","BSTAR":"-0.00001870800000","LAUNCH_DATE":"2021-03-04","EPOCH":"2022-07-24T19:59:35.362752","INCLINATION":"53.0554","MEAN_MOTION":"15.06393771","TLE_LINE2":"2 47776  53.0554  34.6453 0001343  81.0383 279.0758 15.06393771 78212","PERIOD":"95.593","PERIAPSIS":"546.303"},{"NORAD_CAT_ID":"47777","ECCENTRICITY":"0.00014970","OBJECT_NAME":"STARLINK-2210","APOAPSIS":"548.264","COUNTRY_CODE":"US","MEAN_MOTION_DOT":"-0.00001497","MEAN_ANOMALY":"299.2832","RCS_SIZE":"LARGE","REF_FRAME":"TEME","ARG_OF_PERICENTER":"60.8306","DECAY_DATE":null,"EPHEMERIS_TYPE":"0","RA_OF_ASC_NODE":"34.3430","ELEMENT_SET_NO":"999","CLASSIFICATION_TYPE":"U","OBJECT_ID":"2021-017BH","EPOCH":"2022-07-24T21:40:26.329728","BSTAR":"-0.00008165900000","LAUNCH_DATE":"2021-03-04","GP_ID":"208798100","SEMIMAJOR_AXIS":"6925.362","TLE_LINE1":"1 47777U 21017BH  22205.90308252 -.00001497  00000-0 -81659-4 0  9999","PERIAPSIS":"546.190","TLE_LINE2":"2 47777  53.0537  34.3430 0001497  60.8306 299.2832 15.06395585 78229","PERIOD":"95.592","INCLINATION":"53.0537","MEAN_MOTION":"15.06395585","TIME_SYSTEM":"UTC","FILE":"3521124","MEAN_MOTION_DDOT":"0.0000000000000","MEAN_ELEMENT_THEORY":"SGP4","CENTER_NAME":"EARTH","OBJECT_TYPE":"PAYLOAD","SITE":"AFETR","REV_AT_EPOCH":"7822"},{"ARG_OF_PERICENTER":"82.4082","DECAY_DATE":null,"MEAN_MOTION_DOT":"0.00004667","MEAN_ANOMALY":"277.7090","RCS_SIZE":"LARGE","REF_FRAME":"TEME","ELEMENT_SET_NO":"999","CLASSIFICATION_TYPE":"U","OBJECT_ID":"2021-017BJ","EPHEMERIS_TYPE":"0","RA_OF_ASC_NODE":"34.7708","NORAD_CAT_ID":"47778","ECCENTRICITY":"0.00016090","APOAPSIS":"548.299","COUNTRY_CODE":"US","OBJECT_NAME":"STARLINK-2211","FILE":"3521124","MEAN_MOTION_DDOT":"0.0000000000000","TIME_SYSTEM":"UTC","SITE":"AFETR","REV_AT_EPOCH":"7820","MEAN_ELEMENT_THEORY":"SGP4","OBJECT_TYPE":"PAYLOAD","CENTER_NAME":"EARTH","GP_ID":"208798350","SEMIMAJOR_AXIS":"6925.320","TLE_LINE1":"1 47778U 21017BJ  22205.80356582  .00004667  00000-0  33189-3 0  9992","EPOCH":"2022-07-24T19:17:08.086848","BSTAR":"0.00033189000000","LAUNCH_DATE":"2021-03-04","TLE_LINE2":"2 47778  53.0548  34.7708 0001609  82.4082 277.7090 15.06409391 78206","PERIOD":"95.592","INCLINATION":"53.0548","MEAN_MOTION":"15.06409391","PERIAPSIS":"546.070"},{"FILE":"3521124","MEAN_MOTION_DDOT":"0.0000000000000","TIME_SYSTEM":"UTC","SITE":"AFETR","REV_AT_EPOCH":"7840","MEAN_ELEMENT_THEORY":"SGP4","OBJECT_TYPE":"PAYLOAD","CENTER_NAME":"EARTH","GP_ID":"208798602","TLE_LINE1":"1 47779U 21017BK  22205.87559675  .00011467  00000-0  66775-3 0  9991","SEMIMAJOR_AXIS":"6906.841","EPOCH":"2022-07-24T21:00:51.559200","LAUNCH_DATE":"2021-03-04","BSTAR":"0.00066775000000","PERIOD":"95.209","TLE_LINE2":"2 47779  53.0548  21.8264 0001486  90.2062 269.9100 15.12458755 78401","INCLINATION":"53.0548","MEAN_MOTION":"15.12458755","PERIAPSIS":"527.680","ARG_OF_PERICENTER":"90.2062","DECAY_DATE":null,"MEAN_ANOMALY":"269.9100","MEAN_MOTION_DOT":"0.00011467","REF_FRAME":"TEME","RCS_SIZE":"LARGE","CLASSIFICATION_TYPE":"U","ELEMENT_SET_NO":"999","OBJECT_ID":"2021-017BK","EPHEMERIS_TYPE":"0","RA_OF_ASC_NODE":"21.8264","ECCENTRICITY":"0.00014860","NORAD_CAT_ID":"47779","APOAPSIS":"529.733","COUNTRY_CODE":"US","OBJECT_NAME":"STARLINK-2212"},{"TIME_SYSTEM":"UTC","MEAN_MOTION_DDOT":"0.0000000000000","FILE":"3521124","CENTER_NAME":"EARTH","OBJECT_TYPE":"PAYLOAD","MEAN_ELEMENT_THEORY":"SGP4","REV_AT_EPOCH":"7824","SITE":"AFETR","LAUNCH_DATE":"2021-03-04","BSTAR":"-0.00017178000000","EPOCH":"2022-07-24T19:54:16.923456","TLE_LINE1":"1 47780U 21017BL  22205.82936254 -.00002839  00000-0 -17178-3 0  9998","SEMIMAJOR_AXIS":"6925.351","GP_ID":"208799345","PERIAPSIS":"546.325","MEAN_MOTION":"15.06399339","INCLINATION":"53.0552","PERIOD":"95.592","TLE_LINE2":"2 47780  53.0552  34.6480 0001286  75.4303 284.6829 15.06399339 78240","REF_FRAME":"TEME","RCS_SIZE":"LARGE","MEAN_ANOMALY":"284.6829","MEAN_MOTION_DOT":"-0.00002839","DECAY_DATE":null,"ARG_OF_PERICENTER":"75.4303","RA_OF_ASC_NODE":"34.6480","EPHEMERIS_TYPE":"0","OBJECT_ID":"2021-017BL","CLASSIFICATION_TYPE":"U","ELEMENT_SET_NO":"999","ECCENTRICITY":"0.00012860","NORAD_CAT_ID":"47780","OBJECT_NAME":"STARLINK-2213","COUNTRY_CODE":"US","APOAPSIS":"548.106"},{"GP_ID":"208797601","TLE_LINE1":"1 47781U 21017BM  22205.79618032  .00006306  00000-0  44182-3 0  9992","SEMIMAJOR_AXIS":"6925.343","EPOCH":"2022-07-24T19:06:29.979648","LAUNCH_DATE":"2021-03-04","BSTAR":"0.00044182000000","PERIOD":"95.592","TLE_LINE2":"2 47781  53.0534  34.7982 0001443  85.0795 275.0358 15.06401776 78190","INCLINATION":"53.0534","MEAN_MOTION":"15.06401776","PERIAPSIS":"546.209","FILE":"3521124","MEAN_MOTION_DDOT":"0.0000000000000","TIME_SYSTEM":"UTC","SITE":"AFETR","REV_AT_EPOCH":"7819","MEAN_ELEMENT_THEORY":"SGP4","OBJECT_TYPE":"PAYLOAD","CENTER_NAME":"EARTH","ECCENTRICITY":"0.00014430","NORAD_CAT_ID":"47781","APOAPSIS":"548.207","COUNTRY_CODE":"US","OBJECT_NAME":"STARLINK-2223","ARG_OF_PERICENTER":"85.0795","DECAY_DATE":null,"MEAN_ANOMALY":"275.0358","MEAN_MOTION_DOT":"0.00006306","REF_FRAME":"TEME","RCS_SIZE":"LARGE","CLASSIFICATION_TYPE":"U","ELEMENT_SET_NO":"999","OBJECT_ID":"2021-017BM","EPHEMERIS_TYPE":"0","RA_OF_ASC_NODE":"34.7982"},{"INCLINATION":"53.0549","MEAN_MOTION":"15.06407262","TLE_LINE2":"2 47787  53.0549  74.7223 0001371  72.0719 288.0419 15.06407262 77058","PERIOD":"95.592","PERIAPSIS":"546.242","SEMIMAJOR_AXIS":"6925.326","TLE_LINE1":"1 47787U 21018A   22205.81461444  .00001532  00000-0  12173-3 0  9996","GP_ID":"208797851","BSTAR":"0.00012173000000","LAUNCH_DATE":"2021-03-11","EPOCH":"2022-07-24T19:33:02.687616","REV_AT_EPOCH":"7705","SITE":"AFETR","CENTER_NAME":"EARTH","OBJECT_TYPE":"PAYLOAD","MEAN_ELEMENT_THEORY":"SGP4","MEAN_MOTION_DDOT":"0.0000000000000","FILE":"3521124","TIME_SYSTEM":"UTC","COUNTRY_CODE":"US","APOAPSIS":"548.141","OBJECT_NAME":"STARLINK-2257","NORAD_CAT_ID":"47787","ECCENTRICITY":"0.00013710","OBJECT_ID":"2021-018A","ELEMENT_SET_NO":"999","CLASSIFICATION_TYPE":"U","RA_OF_ASC_NODE":"74.7223","EPHEMERIS_TYPE":"0","DECAY_DATE":null,"ARG_OF_PERICENTER":"72.0719","RCS_SIZE":"LARGE","REF_FRAME":"TEME","MEAN_MOTION_DOT":"0.00001532","MEAN_ANOMALY":"288.0419"},{"REV_AT_EPOCH":"7742","SITE":"AFETR","CENTER_NAME":"EARTH","OBJECT_TYPE":"PAYLOAD","MEAN_ELEMENT_THEORY":"SGP4","MEAN_MOTION_DDOT":"0.0000000000000","FILE":"3521124","TIME_SYSTEM":"UTC","INCLINATION":"53.0551","MEAN_MOTION":"15.06403642","TLE_LINE2":"2 47788  53.0551  49.6809 0001623  70.1389 289.9774 15.06403642 77428","PERIOD":"95.592","PERIAPSIS":"546.078","TLE_LINE1":"1 47788U 21018B   22205.82614696  .00003321  00000-0  24173-3 0  9998","SEMIMAJOR_AXIS":"6925.337","GP_ID":"208799102","BSTAR":"0.00024173000000","LAUNCH_DATE":"2021-03-11","EPOCH":"2022-07-24T19:49:39.097344","OBJECT_ID":"2021-018B","ELEMENT_SET_NO":"999","CLASSIFICATION_TYPE":"U","RA_OF_ASC_NODE":"49.6809","EPHEMERIS_TYPE":"0","DECAY_DATE":null,"ARG_OF_PERICENTER":"70.1389","RCS_SIZE":"LARGE","REF_FRAME":"TEME","MEAN_MOTION_DOT":"0.00003321","MEAN_ANOMALY":"289.9774","COUNTRY_CODE":"US","APOAPSIS":"548.326","OBJECT_NAME":"STARLINK-2314","NORAD_CAT_ID":"47788","ECCENTRICITY":"0.00016230"},{"ARG_OF_PERICENTER":"85.1211","DECAY_DATE":null,"MEAN_ANOMALY":"274.9960","MEAN_MOTION_DOT":"-0.00000166","REF_FRAME":"TEME","RCS_SIZE":"LARGE","CLASSIFICATION_TYPE":"U","ELEMENT_SET_NO":"999","OBJECT_ID":"2021-018C","EPHEMERIS_TYPE":"0","RA_OF_ASC_NODE":"54.4617","ECCENTRICITY":"0.00015980","NORAD_CAT_ID":"47789","APOAPSIS":"548.337","COUNTRY_CODE":"US","OBJECT_NAME":"STARLINK-2315","FILE":"3521124","MEAN_MOTION_DDOT":"0.0000000000000","TIME_SYSTEM":"UTC","SITE":"AFETR","REV_AT_EPOCH":"7735","MEAN_ELEMENT_THEORY":"SGP4","OBJECT_TYPE":"PAYLOAD","CENTER_NAME":"EARTH","GP_ID":"208798846","SEMIMAJOR_AXIS":"6925.365","TLE_LINE1":"1 47789U 21018C   22205.87543470 -.00000166  00000-0  77799-5 0  9994","EPOCH":"2022-07-24T21:00:37.558080","LAUNCH_DATE":"2021-03-11","BSTAR":"0.00000777990000","PERIOD":"95.592","TLE_LINE2":"2 47789  53.0557  54.4617 0001598  85.1211 274.9960 15.06394559 77356","MEAN_MOTION":"15.06394559","INCLINATION":"53.0557","PERIAPSIS":"546.124"},{"OBJECT_NAME":"STARLINK-2319","APOAPSIS":"548.240","COUNTRY_CODE":"US","NORAD_CAT_ID":"47790","ECCENTRICITY":"0.00015120","EPHEMERIS_TYPE":"0","RA_OF_ASC_NODE":"44.5690","ELEMENT_SET_NO":"999","CLASSIFICATION_TYPE":"U","OBJECT_ID":"2021-018D","MEAN_MOTION_DOT":"0.00002031","MEAN_ANOMALY":"283.7458","RCS_SIZE":"LARGE","REF_FRAME":"TEME","ARG_OF_PERICENTER":"76.3699","DECAY_DATE":null,"PERIAPSIS":"546.146","TLE_LINE2":"2 47790  53.0544  44.5690 0001512  76.3699 283.7458 15.06406715 77496","PERIOD":"95.592","MEAN_MOTION":"15.06406715","INCLINATION":"53.0544","EPOCH":"2022-07-24T20:24:47.882016","BSTAR":"0.00015520000000","LAUNCH_DATE":"2021-03-11","GP_ID":"208798101","TLE_LINE1":"1 47790U 21018D   22205.85055419  .00002031  00000-0  15520-3 0  9999","SEMIMAJOR_AXIS":"6925.328","MEAN_ELEMENT_THEORY":"SGP4","CENTER_NAME":"EARTH","OBJECT_TYPE":"PAYLOAD","SITE":"AFETR","REV_AT_EPOCH":"7749","TIME_SYSTEM":"UTC","FILE":"3521124","MEAN_MOTION_DDOT":"0.0000000000000"}];
